{
  "norad_id": 52382,
  "name": "STARLINK-3799",
  "history": [
    {
      "epoch": "2026-03-28T22:00:01.999584Z",
      "apogee_km": 535.4977888802196,
      "perigee_km": 534.1092556469166,
      "latitude_deg": -52.49993005471094,
      "longitude_deg": -129.31927068864402,
      "height_km": 553.6950408777126,
      "semi_major_axis_km": 6912.940522263568,
      "eccentricity": 0.00010043,
      "inclination_deg": 53.2151,
      "raan_deg": 102.7309,
      "arg_perigee_deg": 76.7849,
      "mean_anomaly_deg": 201.9106,
      "mean_motion_rev_day": 15.10457575
    },
    {
      "epoch": "2026-03-29T04:00:01.999584Z",
      "apogee_km": 535.393383029591,
      "perigee_km": 533.9596655046589,
      "latitude_deg": -15.167217700640535,
      "longitude_deg": 46.650262449918536,
      "height_km": 539.1676637189513,
      "semi_major_axis_km": 6912.813524267125,
      "eccentricity": 0.0001037,
      "inclination_deg": 53.2154,
      "raan_deg": 101.6066,
      "arg_perigee_deg": 74.0119,
      "mean_anomaly_deg": 124.8403,
      "mean_motion_rev_day": 15.10499199
    },
    {
      "epoch": "2026-03-30T04:31:55.534080Z",
      "apogee_km": 535.3157658057653,
      "perigee_km": 533.9981872738372,
      "latitude_deg": -1.1587438417017331e-05,
      "longitude_deg": -158.56085224609066,
      "height_km": 535.233145516164,
      "semi_major_axis_km": 6912.793976539801,
      "eccentricity": 9.53e-05,
      "inclination_deg": 53.2144,
      "raan_deg": 97.0047,
      "arg_perigee_deg": 60.8799,
      "mean_anomaly_deg": 299.2289,
      "mean_motion_rev_day": 15.10505606
    },
    {
      "epoch": "2026-03-30T06:07:12.318816Z",
      "apogee_km": 535.3057647945216,
      "perigee_km": 533.9883264111113,
      "latitude_deg": -3.102154336594259e-05,
      "longitude_deg": 177.2563803109644,
      "height_km": 535.2371092230096,
      "semi_major_axis_km": 6912.784045602816,
      "eccentricity": 9.529e-05,
      "inclination_deg": 53.2147,
      "raan_deg": 96.7071,
      "arg_perigee_deg": 62.2488,
      "mean_anomaly_deg": 297.8601,
      "mean_motion_rev_day": 15.10508861
    },
    {
      "epoch": "2026-03-30T10:53:02.674752Z",
      "apogee_km": 535.2421341360878,
      "perigee_km": 534.0162241818762,
      "latitude_deg": 2.3656011900071937e-05,
      "longitude_deg": 104.70765477289925,
      "height_km": 535.3622140105168,
      "semi_major_axis_km": 6912.766179158982,
      "eccentricity": 8.867e-05,
      "inclination_deg": 53.2148,
      "raan_deg": 95.8138,
      "arg_perigee_deg": 74.5065,
      "mean_anomaly_deg": 285.6026,
      "mean_motion_rev_day": 15.10514717
    },
    {
      "epoch": "2026-03-30T22:00:00.999936Z",
      "apogee_km": 535.396948967129,
      "perigee_km": 533.9550744291491,
      "latitude_deg": 0.04296219098519888,
      "longitude_deg": -64.54476290603672,
      "height_km": 535.4541049469163,
      "semi_major_axis_km": 6912.813011698139,
      "eccentricity": 0.00010429,
      "inclination_deg": 53.214,
      "raan_deg": 93.729,
      "arg_perigee_deg": 81.0521,
      "mean_anomaly_deg": 279.1123,
      "mean_motion_rev_day": 15.10499367
    },
    {
      "epoch": "2026-03-31T17:03:20.993760Z",
      "apogee_km": 535.3180031396623,
      "perigee_km": 533.817946160163,
      "latitude_deg": 2.0397697404682176e-05,
      "longitude_deg": 5.234314819934926,
      "height_km": 535.2465017198856,
      "semi_major_axis_km": 6912.704974649912,
      "eccentricity": 0.0001085,
      "inclination_deg": 53.2146,
      "raan_deg": 90.1559,
      "arg_perigee_deg": 73.1036,
      "mean_anomaly_deg": 287.0076,
      "mean_motion_rev_day": 15.10534778
    },
    {
      "epoch": "2026-04-01T18:27:47.697984Z",
      "apogee_km": 535.2866536089068,
      "perigee_km": 533.7382201350483,
      "latitude_deg": 3.315104588739513e-05,
      "longitude_deg": -21.68598751509962,
      "height_km": 535.1839162725178,
      "semi_major_axis_km": 6912.649436871978,
      "eccentricity": 0.000112,
      "inclination_deg": 53.2142,
      "raan_deg": 85.3903,
      "arg_perigee_deg": 73.1086,
      "mean_anomaly_deg": 287.003,
      "mean_motion_rev_day": 15.10552982
    },
    {
      "epoch": "2026-04-02T08:45:17.115552Z",
      "apogee_km": 535.2524032513284,
      "perigee_km": 533.6644418308624,
      "latitude_deg": -3.4390727447991324e-05,
      "longitude_deg": 120.673858349922,
      "height_km": 535.1182177753985,
      "semi_major_axis_km": 6912.595422541095,
      "eccentricity": 0.00011486,
      "inclination_deg": 53.2142,
      "raan_deg": 82.7097,
      "arg_perigee_deg": 72.6612,
      "mean_anomaly_deg": 287.4506,
      "mean_motion_rev_day": 15.10570687
    },
    {
      "epoch": "2026-04-03T20:00:01.999008Z",
      "apogee_km": 535.2267031751735,
      "perigee_km": 533.5441952110405,
      "latitude_deg": 49.28595708783247,
      "longitude_deg": 3.7046769585429136,
      "height_km": 539.2193539874347,
      "semi_major_axis_km": 6912.522449193107,
      "eccentricity": 0.0001217,
      "inclination_deg": 53.2148,
      "raan_deg": 76.0977,
      "arg_perigee_deg": 76.202,
      "mean_anomaly_deg": 354.5908,
      "mean_motion_rev_day": 15.10594607
    },
    {
      "epoch": "2026-04-04T08:23:30.654240Z",
      "apogee_km": 535.1339969691007,
      "perigee_km": 533.3945603113434,
      "latitude_deg": -5.132263667011406e-05,
      "longitude_deg": 115.22664865971888,
      "height_km": 534.83720078993,
      "semi_major_axis_km": 6912.401278640222,
      "eccentricity": 0.00012582,
      "inclination_deg": 53.215,
      "raan_deg": 73.7753,
      "arg_perigee_deg": 68.1625,
      "mean_anomaly_deg": 291.9501,
      "mean_motion_rev_day": 15.10634327
    },
    {
      "epoch": "2026-04-05T05:02:01.882464Z",
      "apogee_km": 534.9947414365142,
      "perigee_km": 533.215115629594,
      "latitude_deg": 8.734848138060434e-06,
      "longitude_deg": 160.87693758462262,
      "height_km": 534.6577028190793,
      "semi_major_axis_km": 6912.241928533054,
      "eccentricity": 0.00012873,
      "inclination_deg": 53.2153,
      "raan_deg": 69.9034,
      "arg_perigee_deg": 67.2794,
      "mean_anomaly_deg": 292.8335,
      "mean_motion_rev_day": 15.10686565
    },
    {
      "epoch": "2026-04-06T04:50:57.479424Z",
      "apogee_km": 534.4590097639102,
      "perigee_km": 532.5711611132938,
      "latitude_deg": 4.2591933758044565e-05,
      "longitude_deg": 158.19964132736692,
      "height_km": 534.4336301058551,
      "semi_major_axis_km": 6911.652085438602,
      "eccentricity": 0.00013657,
      "inclination_deg": 53.2163,
      "raan_deg": 65.4358,
      "arg_perigee_deg": 91.3455,
      "mean_anomaly_deg": 268.7695,
      "mean_motion_rev_day": 15.10879953
    },
    {
      "epoch": "2026-04-07T04:39:35.496576Z",
      "apogee_km": 533.4946106554271,
      "perigee_km": 531.7352714262761,
      "latitude_deg": -2.8989653933319797e-05,
      "longitude_deg": 155.5928157882127,
      "height_km": 533.2706546213441,
      "semi_major_axis_km": 6910.751941040851,
      "eccentricity": 0.00012729,
      "inclination_deg": 53.2161,
      "raan_deg": 60.9653,
      "arg_perigee_deg": 74.1015,
      "mean_anomaly_deg": 286.0118,
      "mean_motion_rev_day": 15.11175157
    },
    {
      "epoch": "2026-04-07T20:31:51.481344Z",
      "apogee_km": 533.2630879302342,
      "perigee_km": 530.9744112259732,
      "latitude_deg": 4.463711805108706e-05,
      "longitude_deg": -86.10803780463172,
      "height_km": 532.8716213974108,
      "semi_major_axis_km": 6910.255749578103,
      "eccentricity": 0.0001656,
      "inclination_deg": 53.2165,
      "raan_deg": 57.9828,
      "arg_perigee_deg": 82.8051,
      "mean_anomaly_deg": 277.3131,
      "mean_motion_rev_day": 15.11337925
    },
    {
      "epoch": "2026-04-08T16:00:01.999584Z",
      "apogee_km": 531.8544836915798,
      "perigee_km": 529.896055073702,
      "latitude_deg": 52.778301593314254,
      "longitude_deg": 79.19979625149513,
      "height_km": 536.4729731155174,
      "semi_major_axis_km": 6909.012269382641,
      "eccentricity": 0.00014173,
      "inclination_deg": 53.2156,
      "raan_deg": 54.3276,
      "arg_perigee_deg": 69.9412,
      "mean_anomaly_deg": 27.1777,
      "mean_motion_rev_day": 15.11745958
    },
    {
      "epoch": "2026-04-09T20:00:01.999008Z",
      "apogee_km": 530.8609610344192,
      "perigee_km": 528.6324777465434,
      "latitude_deg": -23.379878560838534,
      "longitude_deg": -107.77068567470512,
      "height_km": 536.685238456177,
      "semi_major_axis_km": 6907.883719390481,
      "eccentricity": 0.0001613,
      "inclination_deg": 53.2152,
      "raan_deg": 49.0651,
      "arg_perigee_deg": 72.891,
      "mean_anomaly_deg": 257.6778,
      "mean_motion_rev_day": 15.12116437
    },
    {
      "epoch": "2026-04-10T12:00:02.000160Z",
      "apogee_km": 529.8398560875703,
      "perigee_km": 528.1973344870112,
      "latitude_deg": 1.3541480641855679,
      "longitude_deg": 28.32334670665383,
      "height_km": 529.2558963285321,
      "semi_major_axis_km": 6907.15559528729,
      "eccentricity": 0.0001189,
      "inclination_deg": 53.215,
      "raan_deg": 46.0575,
      "arg_perigee_deg": 54.6544,
      "mean_anomaly_deg": 307.1364,
      "mean_motion_rev_day": 15.12355545
    },
    {
      "epoch": "2026-04-11T20:00:01.000224Z",
      "apogee_km": 528.975542770514,
      "perigee_km": 526.6758571914206,
      "latitude_deg": 47.03163547571537,
      "longitude_deg": -47.04888208498012,
      "height_km": 531.8716295401931,
      "semi_major_axis_km": 6905.962699980967,
      "eccentricity": 0.0001665,
      "inclination_deg": 53.215,
      "raan_deg": 40.0366,
      "arg_perigee_deg": 80.9199,
      "mean_anomaly_deg": 344.7999,
      "mean_motion_rev_day": 15.12747415
    }
  ]
}